$$SOE
2460728.500000000, A.D. 2025-Feb-22 00:00:00.0000, -4.325477556219398E+08, 1.890462356375343E+08, -1.576702897204884E+08,
2460735.500000000, A.D. 2025-Mar-01 00:00:00.0000, -4.360479208842131E+08, 1.801112275702663E+08, -1.590315940239746E+08,
2460742.500000000, A.D. 2025-Mar-08 00:00:00.0000, -4.393765121809711E+08, 1.711053328472457E+08, -1.603303264874014E+08,
2460749.500000000, A.D. 2025-Mar-15 00:00:00.0000, -4.425323901492643E+08, 1.620321634446911E+08, -1.615660398303822E+08,
2460756.500000000, A.D. 2025-Mar-22 00:00:00.0000, -4.455144790457993E+08, 1.528953498728019E+08, -1.627383093963827E+08,
2460763.500000000, A.D. 2025-Mar-29 00:00:00.0000, -4.483217676342681E+08, 1.436985383294460E+08, -1.638467332352314E+08,
2460770.500000000, A.D. 2025-Apr-05 00:00:00.0000, -4.509533083702377E+08, 1.344453887451248E+08, -1.648909322637444E+08,
2460777.500000000, A.D. 2025-Apr-12 00:00:00.0000, -4.534082168110985E+08, 1.251395738220272E+08, -1.658705503204674E+08,
2460784.500000000, A.D. 2025-Apr-19 00:00:00.0000, -4.556856714401280E+08, 1.157847781861852E+08, -1.667852541712642E+08,
2460791.500000000, A.D. 2025-Apr-26 00:00:00.0000, -4.577849136338953E+08, 1.063846974507670E+08, -1.676347335085069E+08,
2460798.500000000, A.D. 2025-May-03 00:00:00.0000, -4.597052476595011E+08, 9.694303721049725E+07, -1.684187009532378E+08,
2460805.500000000, A.D. 2025-May-10 00:00:00.0000, -4.614460406729975E+08, 8.746351197624084E+07, -1.691368920623435E+08,
2460812.500000000, A.D. 2025-May-17 00:00:00.0000, -4.630067226821752E+08, 7.794984400877002E+07, -1.697890653474315E+08,
2460819.500000000, A.D. 2025-May-24 00:00:00.0000, -4.643867862997393E+08, 6.840576199711192E+07, -1.703750023257095E+08,
2460826.500000000, A.D. 2025-May-31 00:00:00.0000, -4.655857858689861E+08, 5.883499989218499E+07, -1.708945076155856E+08,
2460833.500000000, A.D. 2025-Jun-07 00:00:00.0000, -4.666033363627802E+08, 4.924129709998605E+07, -1.713474089415079E+08,
2460840.500000000, A.D. 2025-Jun-14 00:00:00.0000, -4.674391144207131E+08, 3.962839936666178E+07, -1.717335568857991E+08,
2460847.500000000, A.D. 2025-Jun-21 00:00:00.0000, -4.680928603086687E+08, 3.000005708391393E+07, -1.720528247671309E+08,
2460854.500000000, A.D. 2025-Jun-28 00:00:00.0000, -4.685643776726269E+08, 2.036002277999552E+07, -1.723051087882752E+08,
2460861.500000000, A.D. 2025-Jul-05 00:00:00.0000, -4.688535326025335E+08, 1.071204995240853E+07, -1.724903281368865E+08,
2460868.500000000, A.D. 2025-Jul-12 00:00:00.0000, -4.689602531971567E+08, 1.059892435855553E+06, -1.726084249956830E+08,
2460875.500000000, A.D. 2025-Jul-19 00:00:00.0000, -4.688845294409103E+08, -8.592696270237245E+06, -1.726593645267974E+08,
2460882.500000000, A.D. 2025-Jul-26 00:00:00.0000, -4.686264131830834E+08, -1.824196377133708E+07, -1.726431348543862E+08,
2460889.500000000, A.D. 2025-Aug-02 00:00:00.0000, -4.681860181541564E+08, -2.788415962302890E+07, -1.725597470496501E+08,
2460896.500000000, A.D. 2025-Aug-09 00:00:00.0000, -4.675635199957515E+08, -3.751553626665729E+07, -1.724092351214116E+08,
2460903.500000000, A.D. 2025-Aug-16 00:00:00.0000, -4.667591562272199E+08, -4.713235011879931E+07, -1.721916560242472E+08,
2460910.500000000, A.D. 2025-Aug-23 00:00:00.0000, -4.657732258561631E+08, -5.673086279824807E+07, -1.719070897093914E+08,
2460917.500000000, A.D. 2025-Aug-30 00:00:00.0000, -4.646060883037122E+08, -6.630734177666219E+07, -1.715556391898278E+08,
2460924.500000000, A.D. 2025-Sep-06 00:00:00.0000, -4.632581630622950E+08, -7.585805945309919E+07, -1.711374304072803E+08,
2460931.500000000, A.D. 2025-Sep-13 00:00:00.0000, -4.617299317567413E+08, -8.537929313620321E+07, -1.706526119507792E+08,
2460938.500000000, A.D. 2025-Sep-20 00:00:00.0000, -4.600219393363244E+08, -9.486732757880577E+07, -1.701013550618756E+08,
2460945.500000000, A.D. 2025-Sep-27 00:00:00.0000, -4.581347933392015E+08, -1.043184569528885E+08, -1.694838537689836E+08,
2460952.500000000, A.D. 2025-Oct-04 00:00:00.0000, -4.560691632450472E+08, -1.137289857258126E+08, -1.688003249209550E+08,
2460959.500000000, A.D. 2025-Oct-11 00:00:00.0000, -4.538257802890983E+08, -1.230952293816583E+08, -1.680510081624761E+08,
2460966.500000000, A.D. 2025-Oct-18 00:00:00.0000, -4.514054374541823E+08, -1.324135152626644E+08, -1.672361659001127E+08,
2460973.500000000, A.D. 2025-Oct-25 00:00:00.0000, -4.488089895015517E+08, -1.416801835197381E+08, -1.663560832713064E+08,
2460980.500000000, A.D. 2025-Nov-01 00:00:00.0000, -4.460373530012218E+08, -1.508915881561225E+08, -1.654110681188216E+08,
2460987.500000000, A.D. 2025-Nov-08 00:00:00.0000, -4.430915063270965E+08, -1.600440981950065E+08, -1.644014509762466E+08,
2460994.500000000, A.D. 2025-Nov-15 00:00:00.0000, -4.399724894684996E+08, -1.691340990289742E+08, -1.633275850824747E+08,
2461001.500000000, A.D. 2025-Nov-22 00:00:00.0000, -4.366814032545013E+08, -1.781579937307192E+08, -1.621898464434569E+08,
2461008.500000000, A.D. 2025-Nov-29 00:00:00.0000, -4.332194081429304E+08, -1.871122031899857E+08, -1.609886338336826E+08,
2461015.500000000, A.D. 2025-Dec-06 00:00:00.0000, -4.295877248501151E+08, -1.959931652135144E+08, -1.597243685392596E+08,
2461022.500000000, A.D. 2025-Dec-13 00:00:00.0000, -4.257876363874096E+08, -2.047973359597973E+08, -1.583974941585110E+08,
2461029.500000000, A.D. 2025-Dec-20 00:00:00.0000, -4.218204880123326E+08, -2.135211926862262E+08, -1.570084766981260E+08,
2461036.500000000, A.D. 2025-Dec-27 00:00:00.0000, -4.176876861686320E+08, -2.221612352167041E+08, -1.555578046550097E+08,
2461043.500000000, A.D. 2026-Jan-03 00:00:00.0000, -4.133906978740401E+08, -2.307139867444457E+08, -1.540459889999800E+08,
2461050.500000000, A.D. 2026-Jan-10 00:00:00.0000, -4.089310504453496E+08, -2.391759946483921E+08, -1.524735631285588E+08,
2461057.500000000, A.D. 2026-Jan-17 00:00:00.0000, -4.043103313278766E+08, -2.475438314143684E+08, -1.508410828075262E+08,
2461064.500000000, A.D. 2026-Jan-24 00:00:00.0000, -3.995301879510850E+08, -2.558140956376685E+08, -1.491491261223351E+08,
2461071.500000000, A.D. 2026-Jan-31 00:00:00.0000, -3.945923275865065E+08, -2.639834131136678E+08, -1.473982934277819E+08,
2461078.500000000, A.D. 2026-Feb-07 00:00:00.0000, -3.894985171458648E+08, -2.720484380730074E+08, -1.455892073118153E+08,
2461085.500000000, A.D. 2026-Feb-14 00:00:00.0000, -3.842505826657160E+08, -2.800058545759204E+08, -1.437225125965007E+08,
2461092.500000000, A.D. 2026-Feb-21 00:00:00.0000, -3.788504080903510E+08, -2.878523774879677E+08, -1.417988763640595E+08,
2461099.500000000, A.D. 2026-Feb-28 00:00:00.0000, -3.732999344368261E+08, -2.955847518830432E+08, -1.398189878136423E+08,
2461106.500000000, A.D. 2026-Mar-07 00:00:00.0000, -3.676011613994194E+08, -3.031997528235478E+08, -1.377835579189200E+08,
2461113.500000000, A.D. 2026-Mar-14 00:00:00.0000, -3.617561486173040E+08, -3.106941878512594E+08, -1.356933193318489E+08,
2461120.500000000, A.D. 2026-Mar-21 00:00:00.0000, -3.557670148228149E+08, -3.180648992913103E+08, -1.335490264594499E+08,
2461127.500000000, A.D. 2026-Mar-28 00:00:00.0000, -3.496359368793833E+08, -3.253087653401572E+08, -1.313514554447304E+08,
2461134.500000000, A.D. 2026-Apr-04 00:00:00.0000, -3.433651493118306E+08, -3.324227009027388E+08, -1.291014040745043E+08,
2461141.500000000, A.D. 2026-Apr-11 00:00:00.0000, -3.369569440539652E+08, -3.394036585387700E+08, -1.267996916680505E+08,
2461148.500000000, A.D. 2026-Apr-18 00:00:00.0000, -3.304136702532854E+08, -3.462486295251157E+08, -1.244471589614121E+08,
2461155.500000000, A.D. 2026-Apr-25 00:00:00.0000, -3.237377340862462E+08, -3.529546450196800E+08, -1.220446679900329E+08,
2461162.500000000, A.D. 2026-May-02 00:00:00.0000, -3.169315985526215E+08, -3.595187773562573E+08, -1.195931019745136E+08,
2461169.500000000, A.D. 2026-May-09 00:00:00.0000, -3.099977831233220E+08, -3.659381415361923E+08, -1.170933652257153E+08,
2461176.500000000, A.D. 2026-May-16 00:00:00.0000, -3.029388628624585E+08, -3.722098967780526E+08, -1.145463830919104E+08,
2461183.500000000, A.D. 2026-May-23 00:00:00.0000, -2.957574669704019E+08, -3.783312471024126E+08, -1.119531018685275E+08,
2461190.500000000, A.D. 2026-May-30 00:00:00.0000, -2.884562788244943E+08, -3.842994406315885E+08, -1.093144884531353E+08,
2461197.500000000, A.D. 2026-Jun-06 00:00:00.0000, -2.810380378328077E+08, -3.901117708779767E+08, -1.066315299839068E+08,
2461204.500000000, A.D. 2026-Jun-13 00:00:00.0000, -2.735055394341502E+08, -3.957655798231637E+08, -1.039052337820463E+08,
2461211.500000000, A.D. 2026-Jun-20 00:00:00.0000, -2.658616337454239E+08, -4.012582598623681E+08, -1.011366273136038E+08,
2461218.500000000, A.D. 2026-Jun-27 00:00:00.0000, -2.581092245546154E+08, -4.065872549538397E+08, -9.832675804281367E+07,
2461225.500000000, A.D. 2026-Jul-04 00:00:00.0000, -2.502512686591380E+08, -4.117500617474579E+08, -9.547669324021745E+07,
2461232.500000000, A.D. 2026-Jul-11 00:00:00.0000, -2.422907752950743E+08, -4.167442308236471E+08, -9.258751977950290E+07,
2461239.500000000, A.D. 2026-Jul-18 00:00:00.0000, -2.342308055640345E+08, -4.215673680159355E+08, -8.966034392923379E+07,
2461246.500000000, A.D. 2026-Jul-25 00:00:00.0000, -2.260744718325080E+08, -4.262171358131744E+08, -8.669629114107588E+07,
2461253.500000000, A.D. 2026-Aug-01 00:00:00.0000, -2.178249370544744E+08, -4.306912548879980E+08, -8.369650584226122E+07,
2461260.500000000, A.D. 2026-Aug-08 00:00:00.0000, -2.094854138007036E+08, -4.349875057860643E+08, -8.066215125439250E+07,
2461267.500000000, A.D. 2026-Aug-15 00:00:00.0000, -2.010591625779453E+08, -4.391037303250368E+08, -7.759440923962483E+07,
2461274.500000000, A.D. 2026-Aug-22 00:00:00.0000, -1.925494901978033E+08, -4.430378314817690E+08, -7.449448000466129E+07,
2461281.500000000, A.D. 2026-Aug-29 00:00:00.0000, -1.839597504834906E+08, -4.467877731399879E+08, -7.136358156486094E+07,
2461288.500000000, A.D. 2026-Sep-05 00:00:00.0000, -1.752933451801998E+08, -4.503515825665171E+08, -6.820294939865738E+07,
$$EOE